STARLINK-30090
1 56293U 23056H   26092.93697863  .02154467  29959-2  51047-2 0  9995
2 56293  42.9978  65.3514 0001731 269.3716  90.6963 15.96595013163823
